{"type":"FeatureCollection","features":[{"type":"Feature","properties":{"id":0},"geometry":{"type":"Polygon","coordinates":[[[-73.242974,10.474781],[-73.24343,10.475457],[-73.242935,10.475976],[-73.242331,10.475258],[-73.242974,10.474781]]]}},{"type":"Feature","properties":{"id":1},"geometry":{"type":"Polygon","coordinates":[[[-73.242273,10.475187],[-73.241931,10.474773],[-73.242612,10.474235],[-73.242924,10.474706],[-73.242273,10.475187]]]}},{"type":"Feature","properties":{"id":2},"geometry":{"type":"Polygon","coordinates":[[[-73.2422,10.475241],[-73.241169,10.475981],[-73.240839,10.475626],[-73.241859,10.474829],[-73.2422,10.475241]]]}},{"type":"Feature","properties":{"id":3},"geometry":{"type":"Polygon","coordinates":[[[-73.242257,10.475311],[-73.242873,10.476044],[-73.242092,10.476962],[-73.241231,10.476048],[-73.242257,10.475311]]]}},{"type":"Feature","properties":{"id":4},"geometry":{"type":"Polygon","coordinates":[[[-73.240196,10.475108],[-73.24066,10.475646],[-73.240247,10.475981],[-73.239746,10.475447],[-73.240196,10.475108]]]}},{"type":"Feature","properties":{"id":5},"geometry":{"type":"Polygon","coordinates":[[[-73.24136,10.480284],[-73.241163,10.480158],[-73.240981,10.479899],[-73.241208,10.479746],[-73.241396,10.480066],[-73.241467,10.480165],[-73.24136,10.480284]]]}},{"type":"Feature","properties":{"id":6},"geometry":{"type":"Polygon","coordinates":[[[-73.241521,10.480241],[-73.241749,10.480567],[-73.241586,10.48067],[-73.241423,10.48035],[-73.241521,10.480241]]]}},{"type":"Feature","properties":{"id":7},"geometry":{"type":"Polygon","coordinates":[[[-73.241489,10.480681],[-73.241272,10.480784],[-73.241068,10.480498],[-73.241155,10.480261],[-73.241333,10.480374],[-73.241489,10.480681]]]}},{"type":"Feature","properties":{"id":8},"geometry":{"type":"Polygon","coordinates":[[[-73.248577,10.481778],[-73.24816,10.48206],[-73.247812,10.481573],[-73.248212,10.481292],[-73.248577,10.481778]]]}},{"type":"Feature","properties":{"id":9},"geometry":{"type":"Polygon","coordinates":[[[-73.248286,10.481239],[-73.24883,10.480831],[-73.24923,10.481337],[-73.248653,10.481727],[-73.248286,10.481239]]]}},{"type":"Feature","properties":{"id":10},"geometry":{"type":"Polygon","coordinates":[[[-73.243938,10.472031],[-73.244337,10.471723],[-73.244854,10.472417],[-73.244428,10.472734],[-73.243938,10.472031]]]}},{"type":"Feature","properties":{"id":11},"geometry":{"type":"Polygon","coordinates":[[[-73.244353,10.472785],[-73.243724,10.473181],[-73.243658,10.471908],[-73.243676,10.471885],[-73.243736,10.471916],[-73.243839,10.472048],[-73.244353,10.472785]]]}},{"type":"Feature","properties":{"id":12},"geometry":{"type":"Polygon","coordinates":[[[-73.243729,10.473285],[-73.244405,10.47286],[-73.244808,10.473444],[-73.243764,10.474134],[-73.243729,10.473285]]]}},{"type":"Feature","properties":{"id":13},"geometry":{"type":"Polygon","coordinates":[[[-73.24448,10.472809],[-73.244909,10.472489],[-73.245382,10.473092],[-73.244885,10.473395],[-73.24448,10.472809]]]}},{"type":"Feature","properties":{"id":14},"geometry":{"type":"Polygon","coordinates":[[[-73.241842,10.480616],[-73.241909,10.480553],[-73.241992,10.480706],[-73.2421,10.480843],[-73.241778,10.481025],[-73.241701,10.480904],[-73.241626,10.480752],[-73.241842,10.480616]]]}},{"type":"Feature","properties":{"id":15},"geometry":{"type":"Polygon","coordinates":[[[-73.238802,10.476711],[-73.238533,10.476813],[-73.238357,10.476541],[-73.238393,10.476369],[-73.238531,10.476264],[-73.238802,10.476711]]]}},{"type":"Feature","properties":{"id":16},"geometry":{"type":"Polygon","coordinates":[[[-73.238607,10.476213],[-73.238803,10.476094],[-73.239107,10.476659],[-73.238936,10.476754],[-73.238607,10.476213]]]}},{"type":"Feature","properties":{"id":17},"geometry":{"type":"Polygon","coordinates":[[[-73.23888,10.476835],[-73.239022,10.477158],[-73.239485,10.47813],[-73.23958,10.478302],[-73.239879,10.478763],[-73.240154,10.479138],[-73.240465,10.479579],[-73.240256,10.479716],[-73.239697,10.480021],[-73.239561,10.480008],[-73.239325,10.479931],[-73.238866,10.479773],[-73.238602,10.47965],[-73.238512,10.479581],[-73.238421,10.479255],[-73.238354,10.478951],[-73.238302,10.478645],[-73.238266,10.478336],[-73.238244,10.478027],[-73.238244,10.478015],[-73.238407,10.477842],[-73.238435,10.477655],[-73.238399,10.477445],[-73.238353,10.477252],[-73.238698,10.477088],[-73.238582,10.476892],[-73.238851,10.476789],[-73.23888,10.476835]]]}},{"type":"Feature","properties":{"id":18},"geometry":{"type":"Polygon","coordinates":[[[-73.240321,10.475009],[-73.241312,10.474246],[-73.241419,10.474307],[-73.241801,10.474759],[-73.240779,10.475558],[-73.240321,10.475009]]]}},{"type":"Feature","properties":{"id":19},"geometry":{"type":"Polygon","coordinates":[[[-73.249762,10.480181],[-73.250518,10.479669],[-73.250661,10.479858],[-73.250525,10.480205],[-73.250353,10.480577],[-73.250166,10.480704],[-73.249762,10.480181]]]}},{"type":"Feature","properties":{"id":20},"geometry":{"type":"Polygon","coordinates":[[[-73.250091,10.480755],[-73.249306,10.481286],[-73.248904,10.480777],[-73.249686,10.480232],[-73.250091,10.480755]]]}},{"type":"Feature","properties":{"id":21},"geometry":{"type":"Polygon","coordinates":[[[-73.242332,10.480246],[-73.242535,10.480585],[-73.24218,10.480797],[-73.242068,10.480656],[-73.24198,10.480493],[-73.242332,10.480246]]]}},{"type":"Feature","properties":{"id":22},"geometry":{"type":"Polygon","coordinates":[[[-73.242178,10.480241],[-73.241888,10.479907],[-73.241621,10.479386],[-73.24124,10.479618],[-73.241066,10.479308],[-73.241153,10.479193],[-73.241435,10.478965],[-73.2417,10.478786],[-73.242299,10.478404],[-73.24284,10.479226],[-73.243046,10.479557],[-73.243407,10.48008],[-73.242998,10.48033],[-73.242792,10.479927],[-73.242324,10.480142],[-73.242178,10.480241]]]}},{"type":"Feature","properties":{"id":23},"geometry":{"type":"Polygon","coordinates":[[[-73.242411,10.480201],[-73.242751,10.480045],[-73.242919,10.480376],[-73.242614,10.48054],[-73.242411,10.480201]]]}},{"type":"Feature","properties":{"id":24},"geometry":{"type":"Polygon","coordinates":[[[-73.248084,10.482111],[-73.247335,10.482617],[-73.247029,10.482128],[-73.247738,10.481626],[-73.248084,10.482111]]]}},{"type":"Feature","properties":{"id":25},"geometry":{"type":"Polygon","coordinates":[[[-73.241197,10.477695],[-73.241782,10.477415],[-73.242007,10.477909],[-73.242251,10.478327],[-73.241693,10.478683],[-73.241197,10.477695]]]}},{"type":"Feature","properties":{"id":26},"geometry":{"type":"Polygon","coordinates":[[[-73.241616,10.478733],[-73.241425,10.478862],[-73.240923,10.477852],[-73.241116,10.477738],[-73.241616,10.478733]]]}},{"type":"Feature","properties":{"id":27},"geometry":{"type":"Polygon","coordinates":[[[-73.241114,10.477634],[-73.240145,10.478201],[-73.240041,10.477985],[-73.239637,10.478216],[-73.239567,10.478089],[-73.239105,10.477121],[-73.238979,10.476833],[-73.239229,10.476695],[-73.239191,10.476623],[-73.240231,10.4761],[-73.240521,10.476447],[-73.240614,10.476474],[-73.240708,10.476446],[-73.241106,10.476141],[-73.241986,10.477089],[-73.241776,10.477317],[-73.241114,10.477634]]]}},{"type":"Feature","properties":{"id":28},"geometry":{"type":"Polygon","coordinates":[[[-73.246326,10.483325],[-73.246184,10.483214],[-73.245921,10.482989],[-73.245918,10.482972],[-73.246337,10.483311],[-73.246326,10.483325]]]}},{"type":"Feature","properties":{"id":29},"geometry":{"type":"Polygon","coordinates":[[[-73.246016,10.471737],[-73.246183,10.471613],[-73.246611,10.471734],[-73.246854,10.472108],[-73.246453,10.472388],[-73.246016,10.471737]]]}},{"type":"Feature","properties":{"id":30},"geometry":{"type":"Polygon","coordinates":[[[-73.246377,10.472438],[-73.245944,10.472717],[-73.245506,10.472086],[-73.245942,10.47179],[-73.246377,10.472438]]]}},{"type":"Feature","properties":{"id":31},"geometry":{"type":"Polygon","coordinates":[[[-73.246904,10.472184],[-73.247241,10.4727],[-73.247229,10.47279],[-73.246952,10.473158],[-73.246502,10.472463],[-73.246904,10.472184]]]}},{"type":"Feature","properties":{"id":32},"geometry":{"type":"Polygon","coordinates":[[[-73.246888,10.473227],[-73.246093,10.473847],[-73.245898,10.473568],[-73.245517,10.473113],[-73.245956,10.472817],[-73.246427,10.472514],[-73.246888,10.473227]]]}},{"type":"Feature","properties":{"id":33},"geometry":{"type":"Polygon","coordinates":[[[-73.250258,10.475754],[-73.249744,10.476082],[-73.249054,10.475103],[-73.249575,10.474765],[-73.250258,10.475754]]]}},{"type":"Feature","properties":{"id":34},"geometry":{"type":"Polygon","coordinates":[[[-73.250335,10.475705],[-73.249651,10.474714],[-73.250073,10.474428],[-73.250213,10.474663],[-73.250359,10.474938],[-73.250492,10.475219],[-73.250616,10.475523],[-73.250335,10.475705]]]}},{"type":"Feature","properties":{"id":35},"geometry":{"type":"Polygon","coordinates":[[[-73.250865,10.47646],[-73.250387,10.475779],[-73.250648,10.47561],[-73.250761,10.475948],[-73.250843,10.476248],[-73.250888,10.476445],[-73.250865,10.47646]]]}},{"type":"Feature","properties":{"id":36},"geometry":{"type":"Polygon","coordinates":[[[-73.250789,10.47651],[-73.250263,10.476851],[-73.249795,10.476157],[-73.25031,10.475828],[-73.250789,10.47651]]]}},{"type":"Feature","properties":{"id":37},"geometry":{"type":"Polygon","coordinates":[[[-73.244505,10.478091],[-73.24395,10.477335],[-73.244479,10.477003],[-73.245036,10.47775],[-73.244505,10.478091]]]}},{"type":"Feature","properties":{"id":38},"geometry":{"type":"Polygon","coordinates":[[[-73.247358,10.472565],[-73.247038,10.472091],[-73.24723,10.471969],[-73.247539,10.472115],[-73.247814,10.472263],[-73.247358,10.472565]]]}},{"type":"Feature","properties":{"id":39},"geometry":{"type":"Polygon","coordinates":[[[-73.24726,10.482668],[-73.246699,10.483046],[-73.246405,10.482567],[-73.246955,10.482181],[-73.24726,10.482668]]]}},{"type":"Feature","properties":{"id":40},"geometry":{"type":"Polygon","coordinates":[[[-73.242425,10.477527],[-73.242244,10.477654],[-73.242064,10.477814],[-73.241858,10.477363],[-73.24205,10.477155],[-73.242425,10.477527]]]}},{"type":"Feature","properties":{"id":41},"geometry":{"type":"Polygon","coordinates":[[[-73.242106,10.477898],[-73.242302,10.477725],[-73.242529,10.477569],[-73.242736,10.477773],[-73.242799,10.477862],[-73.242836,10.477928],[-73.242327,10.478276],[-73.242106,10.477898]]]}},{"type":"Feature","properties":{"id":42},"geometry":{"type":"Polygon","coordinates":[[[-73.246154,10.479408],[-73.246419,10.479779],[-73.245717,10.480015],[-73.245517,10.479672],[-73.246154,10.479408]]]}},{"type":"Feature","properties":{"id":43},"geometry":{"type":"Polygon","coordinates":[[[-73.245469,10.479594],[-73.245175,10.479144],[-73.245767,10.478831],[-73.246102,10.479332],[-73.245469,10.479594]]]}},{"type":"Feature","properties":{"id":44},"geometry":{"type":"Polygon","coordinates":[[[-73.246182,10.479288],[-73.245847,10.478787],[-73.246166,10.478606],[-73.246412,10.478445],[-73.24675,10.478875],[-73.246182,10.479288]]]}},{"type":"Feature","properties":{"id":45},"geometry":{"type":"Polygon","coordinates":[[[-73.246807,10.478946],[-73.247024,10.47921],[-73.247187,10.47946],[-73.246508,10.479747],[-73.246234,10.479362],[-73.246807,10.478946]]]}},{"type":"Feature","properties":{"id":46},"geometry":{"type":"Polygon","coordinates":[[[-73.243884,10.471958],[-73.243756,10.471791],[-73.243667,10.471654],[-73.243661,10.471497],[-73.243885,10.471467],[-73.244116,10.471444],[-73.244282,10.471651],[-73.243884,10.471958]]]}},{"type":"Feature","properties":{"id":47},"geometry":{"type":"Polygon","coordinates":[[[-73.244409,10.471667],[-73.244716,10.471424],[-73.244825,10.471426],[-73.245294,10.471457],[-73.245766,10.471524],[-73.245892,10.471715],[-73.244928,10.472364],[-73.244409,10.471667]]]}},{"type":"Feature","properties":{"id":48},"geometry":{"type":"Polygon","coordinates":[[[-73.248919,10.475193],[-73.249604,10.476173],[-73.249195,10.476438],[-73.248502,10.475484],[-73.248919,10.475193]]]}},{"type":"Feature","properties":{"id":49},"geometry":{"type":"Polygon","coordinates":[[[-73.24845,10.47541],[-73.247958,10.474697],[-73.248398,10.474416],[-73.248868,10.475118],[-73.24845,10.47541]]]}},{"type":"Feature","properties":{"id":50},"geometry":{"type":"Polygon","coordinates":[[[-73.248376,10.475463],[-73.247717,10.475946],[-73.247517,10.475692],[-73.247143,10.475186],[-73.247477,10.475004],[-73.247881,10.474746],[-73.248376,10.475463]]]}},{"type":"Feature","properties":{"id":51},"geometry":{"type":"Polygon","coordinates":[[[-73.249069,10.476418],[-73.248433,10.476851],[-73.247774,10.476018],[-73.248428,10.475537],[-73.249069,10.476418]]]}},{"type":"Feature","properties":{"id":52},"geometry":{"type":"Polygon","coordinates":[[[-73.240529,10.478943],[-73.240799,10.47866],[-73.241066,10.479158],[-73.240983,10.479267],[-73.240827,10.479328],[-73.240529,10.478943]]]}},{"type":"Feature","properties":{"id":53},"geometry":{"type":"Polygon","coordinates":[[[-73.240745,10.479371],[-73.240629,10.479445],[-73.240537,10.479524],[-73.240256,10.479125],[-73.240458,10.479],[-73.240745,10.479371]]]}},{"type":"Feature","properties":{"id":54},"geometry":{"type":"Polygon","coordinates":[[[-73.240203,10.479051],[-73.239954,10.478712],[-73.239684,10.478294],[-73.240001,10.478112],[-73.240105,10.478328],[-73.240512,10.478093],[-73.240755,10.478575],[-73.24044,10.478905],[-73.240203,10.479051]]]}},{"type":"Feature","properties":{"id":55},"geometry":{"type":"Polygon","coordinates":[[[-73.249739,10.477305],[-73.250242,10.477971],[-73.249566,10.478301],[-73.249421,10.478101],[-73.249132,10.477735],[-73.249739,10.477305]]]}},{"type":"Feature","properties":{"id":56},"geometry":{"type":"Polygon","coordinates":[[[-73.249076,10.477663],[-73.248549,10.476997],[-73.249174,10.476562],[-73.249685,10.477233],[-73.249076,10.477663]]]}},{"type":"Feature","properties":{"id":57},"geometry":{"type":"Polygon","coordinates":[[[-73.24976,10.477181],[-73.24925,10.476511],[-73.249655,10.476248],[-73.250131,10.476933],[-73.24976,10.477181]]]}},{"type":"Feature","properties":{"id":58},"geometry":{"type":"Polygon","coordinates":[[[-73.250183,10.477008],[-73.250693,10.477731],[-73.250324,10.477929],[-73.249814,10.477254],[-73.250183,10.477008]]]}},{"type":"Feature","properties":{"id":59},"geometry":{"type":"Polygon","coordinates":[[[-73.245984,10.477175],[-73.245522,10.477447],[-73.245114,10.477701],[-73.244556,10.476953],[-73.244854,10.47675],[-73.245367,10.476357],[-73.245984,10.477175]]]}},{"type":"Feature","properties":{"id":60},"geometry":{"type":"Polygon","coordinates":[[[-73.245441,10.476304],[-73.246318,10.475708],[-73.246932,10.476525],[-73.246062,10.477126],[-73.245441,10.476304]]]}},{"type":"Feature","properties":{"id":61},"geometry":{"type":"Polygon","coordinates":[[[-73.24531,10.476287],[-73.244801,10.476677],[-73.244505,10.476879],[-73.244137,10.476291],[-73.244395,10.476109],[-73.244914,10.475822],[-73.24531,10.476287]]]}},{"type":"Feature","properties":{"id":62},"geometry":{"type":"Polygon","coordinates":[[[-73.245384,10.476233],[-73.244992,10.475773],[-73.245406,10.475501],[-73.245947,10.475112],[-73.246267,10.475633],[-73.245384,10.476233]]]}},{"type":"Feature","properties":{"id":63},"geometry":{"type":"Polygon","coordinates":[[[-73.247651,10.476009],[-73.247338,10.476248],[-73.247187,10.47599],[-73.247471,10.475782],[-73.247651,10.476009]]]}},{"type":"Feature","properties":{"id":64},"geometry":{"type":"Polygon","coordinates":[[[-73.247416,10.47571],[-73.247101,10.47594],[-73.246773,10.476157],[-73.246393,10.475656],[-73.246493,10.475586],[-73.247063,10.475232],[-73.247416,10.47571]]]}},{"type":"Feature","properties":{"id":65},"geometry":{"type":"Polygon","coordinates":[[[-73.246474,10.479856],[-73.24674,10.480228],[-73.246667,10.480276],[-73.246415,10.480468],[-73.246148,10.480719],[-73.245765,10.480094],[-73.246474,10.479856]]]}},{"type":"Feature","properties":{"id":66},"geometry":{"type":"Polygon","coordinates":[[[-73.246562,10.479822],[-73.247693,10.479338],[-73.247819,10.479521],[-73.246816,10.480178],[-73.246562,10.479822]]]}},{"type":"Feature","properties":{"id":67},"geometry":{"type":"Polygon","coordinates":[[[-73.248474,10.477048],[-73.249348,10.478156],[-73.249484,10.478343],[-73.248693,10.478751],[-73.247776,10.477502],[-73.248474,10.477048]]]}},{"type":"Feature","properties":{"id":68},"geometry":{"type":"Polygon","coordinates":[[[-73.247721,10.47743],[-73.247224,10.476746],[-73.247062,10.476546],[-73.247351,10.476351],[-73.247707,10.47608],[-73.248417,10.476977],[-73.247721,10.47743]]]}},{"type":"Feature","properties":{"id":69},"geometry":{"type":"Polygon","coordinates":[[[-73.247009,10.475159],[-73.246442,10.475511],[-73.246342,10.475581],[-73.246021,10.475059],[-73.246611,10.474634],[-73.247009,10.475159]]]}},{"type":"Feature","properties":{"id":70},"geometry":{"type":"Polygon","coordinates":[[[-73.246685,10.474581],[-73.246974,10.474373],[-73.247386,10.47495],[-73.247088,10.475113],[-73.246685,10.474581]]]}},{"type":"Feature","properties":{"id":71},"geometry":{"type":"Polygon","coordinates":[[[-73.246628,10.47451],[-73.246148,10.473919],[-73.246938,10.473303],[-73.247388,10.473968],[-73.246628,10.47451]]]}},{"type":"Feature","properties":{"id":72},"geometry":{"type":"Polygon","coordinates":[[[-73.246555,10.474563],[-73.245971,10.474983],[-73.245574,10.474405],[-73.246077,10.473977],[-73.246555,10.474563]]]}},{"type":"Feature","properties":{"id":73},"geometry":{"type":"Polygon","coordinates":[[[-73.240873,10.473319],[-73.240543,10.472888],[-73.240862,10.472641],[-73.241544,10.472619],[-73.241975,10.47327],[-73.240873,10.473319]]]}},{"type":"Feature","properties":{"id":74},"geometry":{"type":"Polygon","coordinates":[[[-73.242033,10.473358],[-73.242562,10.474159],[-73.241873,10.474703],[-73.241491,10.474251],[-73.241451,10.474108],[-73.240938,10.473407],[-73.242033,10.473358]]]}},{"type":"Feature","properties":{"id":75},"geometry":{"type":"Polygon","coordinates":[[[-73.240815,10.473393],[-73.241344,10.474115],[-73.241318,10.474132],[-73.240669,10.473359],[-73.240429,10.472983],[-73.240473,10.472946],[-73.240815,10.473393]]]}},{"type":"Feature","properties":{"id":76},"geometry":{"type":"Polygon","coordinates":[[[-73.247908,10.474621],[-73.247505,10.47398],[-73.2478,10.473546],[-73.248347,10.47434],[-73.247908,10.474621]]]}},{"type":"Feature","properties":{"id":77},"geometry":{"type":"Polygon","coordinates":[[[-73.247272,10.479423],[-73.247098,10.479157],[-73.246881,10.478892],[-73.24719,10.478664],[-73.247639,10.479263],[-73.247272,10.479423]]]}},{"type":"Feature","properties":{"id":78},"geometry":{"type":"Polygon","coordinates":[[[-73.247724,10.479224],[-73.247236,10.478573],[-73.24687,10.478112],[-73.247213,10.477873],[-73.2477,10.477552],[-73.24861,10.478792],[-73.247724,10.479224]]]}},{"type":"Feature","properties":{"id":79},"geometry":{"type":"Polygon","coordinates":[[[-73.248666,10.478866],[-73.249106,10.479428],[-73.248248,10.479893],[-73.247919,10.479506],[-73.247777,10.479299],[-73.248666,10.478866]]]}},{"type":"Feature","properties":{"id":80},"geometry":{"type":"Polygon","coordinates":[[[-73.24286,10.473276],[-73.242924,10.473325],[-73.243186,10.47366],[-73.242634,10.474102],[-73.242136,10.473349],[-73.24286,10.473276]]]}},{"type":"Feature","properties":{"id":81},"geometry":{"type":"Polygon","coordinates":[[[-73.24208,10.473264],[-73.24165,10.472613],[-73.242704,10.472554],[-73.242734,10.472902],[-73.242759,10.473084],[-73.242806,10.473191],[-73.24208,10.473264]]]}},{"type":"Feature","properties":{"id":82},"geometry":{"type":"Polygon","coordinates":[[[-73.24291,10.473201],[-73.242847,10.47306],[-73.242825,10.472892],[-73.242795,10.472549],[-73.2436,10.472521],[-73.243634,10.473213],[-73.242971,10.473246],[-73.24291,10.473201]]]}},{"type":"Feature","properties":{"id":83},"geometry":{"type":"Polygon","coordinates":[[[-73.250536,10.479544],[-73.250077,10.47896],[-73.25066,10.478565],[-73.250909,10.478951],[-73.250824,10.47933],[-73.250536,10.479544]]]}},{"type":"Feature","properties":{"id":84},"geometry":{"type":"Polygon","coordinates":[[[-73.249707,10.480108],[-73.249241,10.479456],[-73.25,10.479009],[-73.250462,10.479597],[-73.249707,10.480108]]]}},{"type":"Feature","properties":{"id":85},"geometry":{"type":"Polygon","coordinates":[[[-73.241842,10.479994],[-73.242103,10.480293],[-73.241892,10.480444],[-73.241821,10.480511],[-73.241588,10.480178],[-73.241842,10.479994]]]}},{"type":"Feature","properties":{"id":86},"geometry":{"type":"Polygon","coordinates":[[[-73.241536,10.480104],[-73.241473,10.480017],[-73.241285,10.479697],[-73.241585,10.479515],[-73.241791,10.479919],[-73.241536,10.480104]]]}},{"type":"Feature","properties":{"id":87},"geometry":{"type":"Polygon","coordinates":[[[-73.250939,10.476711],[-73.250998,10.477166],[-73.251023,10.477564],[-73.250821,10.477657],[-73.250314,10.476926],[-73.250843,10.476583],[-73.250939,10.476711]]]}},{"type":"Feature","properties":{"id":88},"geometry":{"type":"Polygon","coordinates":[[[-73.245679,10.480127],[-73.246086,10.480793],[-73.245063,10.481603],[-73.244523,10.480716],[-73.244888,10.480494],[-73.245679,10.480127]]]}},{"type":"Feature","properties":{"id":89},"geometry":{"type":"Polygon","coordinates":[[[-73.244901,10.480388],[-73.244874,10.480229],[-73.244821,10.48005],[-73.245435,10.479711],[-73.245632,10.480049],[-73.244901,10.480388]]]}},{"type":"Feature","properties":{"id":90},"geometry":{"type":"Polygon","coordinates":[[[-73.249187,10.479383],[-73.248749,10.478824],[-73.249539,10.478417],[-73.249943,10.478937],[-73.249187,10.479383]]]}},{"type":"Feature","properties":{"id":91},"geometry":{"type":"Polygon","coordinates":[[[-73.249161,10.479501],[-73.249632,10.48016],[-73.248849,10.480705],[-73.248304,10.479965],[-73.249161,10.479501]]]}},{"type":"Feature","properties":{"id":92},"geometry":{"type":"Polygon","coordinates":[[[-73.247048,10.47432],[-73.247437,10.474044],[-73.247832,10.47467],[-73.247465,10.474904],[-73.247048,10.47432]]]}},{"type":"Feature","properties":{"id":93},"geometry":{"type":"Polygon","coordinates":[[[-73.247685,10.481552],[-73.246981,10.482051],[-73.24642,10.48117],[-73.247096,10.480727],[-73.247685,10.481552]]]}},{"type":"Feature","properties":{"id":94},"geometry":{"type":"Polygon","coordinates":[[[-73.247172,10.480677],[-73.248225,10.480011],[-73.248775,10.480759],[-73.248195,10.481194],[-73.247759,10.4815],[-73.247172,10.480677]]]}},{"type":"Feature","properties":{"id":95},"geometry":{"type":"Polygon","coordinates":[[[-73.242876,10.47801],[-73.243051,10.478414],[-73.243325,10.478897],[-73.242894,10.479142],[-73.242375,10.478354],[-73.242876,10.47801]]]}},{"type":"Feature","properties":{"id":96},"geometry":{"type":"Polygon","coordinates":[[[-73.243327,10.478007],[-73.243321,10.478018],[-73.243065,10.478223],[-73.242953,10.477958],[-73.243199,10.477795],[-73.243327,10.478007]]]}},{"type":"Feature","properties":{"id":97},"geometry":{"type":"Polygon","coordinates":[[[-73.243186,10.477696],[-73.242912,10.477877],[-73.242876,10.477813],[-73.242806,10.477715],[-73.242603,10.477514],[-73.243469,10.476836],[-73.243818,10.47731],[-73.243186,10.477696]]]}},{"type":"Feature","properties":{"id":98},"geometry":{"type":"Polygon","coordinates":[[[-73.241202,10.480842],[-73.241109,10.480987],[-73.240817,10.480725],[-73.241007,10.480569],[-73.241202,10.480842]]]}},{"type":"Feature","properties":{"id":99},"geometry":{"type":"Polygon","coordinates":[[[-73.246987,10.476597],[-73.247151,10.476801],[-73.247644,10.47748],[-73.247161,10.477799],[-73.246813,10.478041],[-73.246118,10.477197],[-73.246987,10.476597]]]}},{"type":"Feature","properties":{"id":100},"geometry":{"type":"Polygon","coordinates":[[[-73.246041,10.477247],[-73.246739,10.478094],[-73.246396,10.478348],[-73.246118,10.478529],[-73.245796,10.478712],[-73.245164,10.477809],[-73.245181,10.477793],[-73.245167,10.477775],[-73.24557,10.477525],[-73.246041,10.477247]]]}},{"type":"Feature","properties":{"id":101},"geometry":{"type":"Polygon","coordinates":[[[-73.249523,10.47469],[-73.249003,10.475028],[-73.248544,10.474322],[-73.249047,10.474009],[-73.249523,10.47469]]]}},{"type":"Feature","properties":{"id":102},"geometry":{"type":"Polygon","coordinates":[[[-73.245387,10.479634],[-73.244788,10.479964],[-73.244682,10.479731],[-73.244539,10.479515],[-73.245096,10.479189],[-73.245387,10.479634]]]}},{"type":"Feature","properties":{"id":103},"geometry":{"type":"Polygon","coordinates":[[[-73.24544,10.473163],[-73.245825,10.473623],[-73.246022,10.473904],[-73.245523,10.47433],[-73.244937,10.47347],[-73.24544,10.473163]]]}},{"type":"Feature","properties":{"id":104},"geometry":{"type":"Polygon","coordinates":[[[-73.243771,10.474241],[-73.24486,10.473519],[-73.24509,10.473852],[-73.244475,10.474231],[-73.244019,10.474589],[-73.243776,10.474268],[-73.243771,10.474241]]]}},{"type":"Feature","properties":{"id":105},"geometry":{"type":"Polygon","coordinates":[[[-73.246806,10.483508],[-73.246483,10.483303],[-73.246617,10.483214],[-73.246806,10.483508]]]}},{"type":"Feature","properties":{"id":106},"geometry":{"type":"Polygon","coordinates":[[[-73.243532,10.480109],[-73.243916,10.479864],[-73.244398,10.480684],[-73.243984,10.480916],[-73.243532,10.480109]]]}},{"type":"Feature","properties":{"id":107},"geometry":{"type":"Polygon","coordinates":[[[-73.243444,10.481205],[-73.24304,10.480412],[-73.243455,10.480157],[-73.243905,10.480961],[-73.243444,10.481205]]]}},{"type":"Feature","properties":{"id":108},"geometry":{"type":"Polygon","coordinates":[[[-73.243484,10.480032],[-73.243122,10.479507],[-73.242942,10.479218],[-73.243371,10.478975],[-73.243869,10.479786],[-73.243484,10.480032]]]}},{"type":"Feature","properties":{"id":109},"geometry":{"type":"Polygon","coordinates":[[[-73.247734,10.473451],[-73.247719,10.473495],[-73.24745,10.473897],[-73.247005,10.473239],[-73.247319,10.472822],[-73.247734,10.473451]]]}},{"type":"Feature","properties":{"id":110},"geometry":{"type":"Polygon","coordinates":[[[-73.245747,10.481575],[-73.245261,10.481937],[-73.24511,10.481681],[-73.246133,10.480871],[-73.246298,10.481145],[-73.245747,10.481575]]]}},{"type":"Feature","properties":{"id":111},"geometry":{"type":"Polygon","coordinates":[[[-73.246346,10.481223],[-73.246906,10.482104],[-73.246405,10.482456],[-73.245836,10.48162],[-73.246346,10.481223]]]}},{"type":"Feature","properties":{"id":112},"geometry":{"type":"Polygon","coordinates":[[[-73.245764,10.481676],[-73.246331,10.482509],[-73.245866,10.482832],[-73.24531,10.482013],[-73.245764,10.481676]]]}},{"type":"Feature","properties":{"id":113},"geometry":{"type":"Polygon","coordinates":[[[-73.242729,10.471711],[-73.24302,10.471628],[-73.243171,10.47161],[-73.243378,10.471595],[-73.243538,10.471617],[-73.243571,10.471963],[-73.243596,10.472431],[-73.242787,10.472459],[-73.242729,10.471711]]]}},{"type":"Feature","properties":{"id":114},"geometry":{"type":"Polygon","coordinates":[[[-73.2462,10.480804],[-73.246222,10.480772],[-73.246474,10.480537],[-73.24672,10.48035],[-73.246793,10.480302],[-73.247043,10.480653],[-73.246372,10.481093],[-73.2462,10.480804]]]}},{"type":"Feature","properties":{"id":115},"geometry":{"type":"Polygon","coordinates":[[[-73.250685,10.478439],[-73.250378,10.478003],[-73.250746,10.477806],[-73.251011,10.478178],[-73.251007,10.478231],[-73.250685,10.478439]]]}},{"type":"Feature","properties":{"id":116},"geometry":{"type":"Polygon","coordinates":[[[-73.250021,10.478888],[-73.249622,10.478375],[-73.250296,10.478045],[-73.250609,10.478489],[-73.250021,10.478888]]]}},{"type":"Feature","properties":{"id":117},"geometry":{"type":"Polygon","coordinates":[[[-73.244566,10.474282],[-73.245141,10.473927],[-73.245452,10.474387],[-73.244915,10.474787],[-73.244566,10.474282]]]}},{"type":"Feature","properties":{"id":118},"geometry":{"type":"Polygon","coordinates":[[[-73.244843,10.474843],[-73.244483,10.475138],[-73.244076,10.47466],[-73.244491,10.474334],[-73.244843,10.474843]]]}},{"type":"Feature","properties":{"id":119},"geometry":{"type":"Polygon","coordinates":[[[-73.240991,10.479361],[-73.241163,10.479668],[-73.240931,10.479824],[-73.240719,10.479495],[-73.240833,10.479423],[-73.240991,10.479361]]]}},{"type":"Feature","properties":{"id":120},"geometry":{"type":"Polygon","coordinates":[[[-73.24419,10.478464],[-73.244501,10.478249],[-73.245047,10.479112],[-73.244171,10.479623],[-73.243949,10.479742],[-73.243448,10.478926],[-73.244167,10.478435],[-73.24419,10.478464]]]}},{"type":"Feature","properties":{"id":121},"geometry":{"type":"Polygon","coordinates":[[[-73.244422,10.478132],[-73.24373,10.47861],[-73.243727,10.478626],[-73.243402,10.478848],[-73.243103,10.47831],[-73.243394,10.478076],[-73.243431,10.478003],[-73.243276,10.477747],[-73.243873,10.477383],[-73.244422,10.478132]]]}},{"type":"Feature","properties":{"id":122},"geometry":{"type":"Polygon","coordinates":[[[-73.244855,10.47575],[-73.244346,10.476032],[-73.244086,10.476216],[-73.243525,10.475437],[-73.243446,10.475316],[-73.243716,10.475001],[-73.244007,10.47472],[-73.244442,10.47523],[-73.244855,10.47575]]]}},{"type":"Feature","properties":{"id":123},"geometry":{"type":"Polygon","coordinates":[[[-73.244541,10.475208],[-73.244933,10.474887],[-73.245503,10.474462],[-73.245897,10.475036],[-73.245354,10.475427],[-73.244934,10.475703],[-73.244541,10.475208]]]}},{"type":"Feature","properties":{"id":124},"geometry":{"type":"Polygon","coordinates":[[[-73.238487,10.476003],[-73.238524,10.475881],[-73.238577,10.475719],[-73.238758,10.476015],[-73.238561,10.476134],[-73.238487,10.476003]]]}},{"type":"Feature","properties":{"id":125},"geometry":{"type":"Polygon","coordinates":[[[-73.247867,10.473331],[-73.247444,10.472699],[-73.247974,10.472357],[-73.248343,10.472598],[-73.248623,10.472807],[-73.247867,10.473331]]]}},{"type":"Feature","properties":{"id":126},"geometry":{"type":"Polygon","coordinates":[[[-73.242556,10.477435],[-73.242156,10.477028],[-73.24293,10.476117],[-73.243414,10.476763],[-73.242556,10.477435]]]}},{"type":"Feature","properties":{"id":127},"geometry":{"type":"Polygon","coordinates":[[[-73.243485,10.476706],[-73.242992,10.476048],[-73.243483,10.475533],[-73.244014,10.476271],[-73.243485,10.476706]]]}},{"type":"Feature","properties":{"id":128},"geometry":{"type":"Polygon","coordinates":[[[-73.247874,10.479593],[-73.248168,10.47994],[-73.24712,10.480603],[-73.246869,10.480252],[-73.247874,10.479593]]]}},{"type":"Feature","properties":{"id":129},"geometry":{"type":"Polygon","coordinates":[[[-73.247263,10.476301],[-73.247007,10.476474],[-73.246827,10.476229],[-73.247112,10.476042],[-73.247263,10.476301]]]}},{"type":"Feature","properties":{"id":130},"geometry":{"type":"Polygon","coordinates":[[[-73.241134,10.479092],[-73.240851,10.478562],[-73.240591,10.478047],[-73.240845,10.477898],[-73.241351,10.478916],[-73.241134,10.479092]]]}},{"type":"Feature","properties":{"id":131},"geometry":{"type":"Polygon","coordinates":[[[-73.244476,10.480638],[-73.243996,10.47982],[-73.244059,10.479791],[-73.24446,10.479561],[-73.244602,10.479774],[-73.244724,10.480044],[-73.244785,10.480249],[-73.244816,10.480432],[-73.244476,10.480638]]]}},{"type":"Feature","properties":{"id":132},"geometry":{"type":"Polygon","coordinates":[[[-73.242684,10.474178],[-73.243313,10.473674],[-73.243046,10.473333],[-73.243638,10.473303],[-73.243674,10.474197],[-73.242998,10.474653],[-73.242684,10.474178]]]}},{"type":"Feature","properties":{"id":133},"geometry":{"type":"Polygon","coordinates":[[[-73.243688,10.474297],[-73.24395,10.474649],[-73.24365,10.47494],[-73.243394,10.475237],[-73.243049,10.474729],[-73.243688,10.474297]]]}},{"type":"Feature","properties":{"id":134},"geometry":{"type":"Polygon","coordinates":[[[-73.239672,10.475501],[-73.240168,10.47603],[-73.239715,10.476258],[-73.239394,10.475694],[-73.239672,10.475501]]]}},{"type":"Feature","properties":{"id":135},"geometry":{"type":"Polygon","coordinates":[[[-73.239587,10.475449],[-73.239146,10.475755],[-73.239119,10.475226],[-73.23925,10.475295],[-73.239587,10.475449]]]}},{"type":"Feature","properties":{"id":136},"geometry":{"type":"Polygon","coordinates":[[[-73.244266,10.480903],[-73.244121,10.481195],[-73.244003,10.481008],[-73.244271,10.480859],[-73.244266,10.480903]]]}},{"type":"Feature","properties":{"id":137},"geometry":{"type":"Polygon","coordinates":[[[-73.240721,10.475713],[-73.241044,10.476073],[-73.240665,10.476364],[-73.240613,10.476379],[-73.240573,10.476368],[-73.240307,10.476049],[-73.240721,10.475713]]]}},{"type":"Feature","properties":{"id":138},"geometry":{"type":"Polygon","coordinates":[[[-73.245715,10.478755],[-73.245126,10.479068],[-73.244577,10.478198],[-73.245091,10.477864],[-73.245715,10.478755]]]}},{"type":"Feature","properties":{"id":139},"geometry":{"type":"Polygon","coordinates":[[[-73.239516,10.473956],[-73.239712,10.47371],[-73.239948,10.473445],[-73.240593,10.473419],[-73.240604,10.473423],[-73.241243,10.474185],[-73.240264,10.474938],[-73.239516,10.473956]]]}},{"type":"Feature","properties":{"id":140},"geometry":{"type":"Polygon","coordinates":[[[-73.246824,10.478821],[-73.246487,10.478393],[-73.246796,10.478165],[-73.247135,10.478592],[-73.246824,10.478821]]]}},{"type":"Feature","properties":{"id":141},"geometry":{"type":"Polygon","coordinates":[[[-73.246624,10.483099],[-73.246403,10.483247],[-73.245977,10.482899],[-73.245947,10.482886],[-73.24633,10.482619],[-73.246624,10.483099]]]}},{"type":"Feature","properties":{"id":142},"geometry":{"type":"Polygon","coordinates":[[[-73.244983,10.472436],[-73.24543,10.472137],[-73.245868,10.472767],[-73.245459,10.473043],[-73.244983,10.472436]]]}},{"type":"Feature","properties":{"id":143},"geometry":{"type":"Polygon","coordinates":[[[-73.239043,10.475825],[-73.238835,10.475966],[-73.238617,10.475608],[-73.238736,10.475305],[-73.239043,10.475825]]]}},{"type":"Feature","properties":{"id":144},"geometry":{"type":"Polygon","coordinates":[[[-73.238781,10.475202],[-73.238833,10.475087],[-73.238901,10.475089],[-73.239024,10.475174],[-73.239049,10.475656],[-73.238781,10.475202]]]}},{"type":"Feature","properties":{"id":145},"geometry":{"type":"Polygon","coordinates":[[[-73.23888,10.476045],[-73.239319,10.475746],[-73.239634,10.476299],[-73.239149,10.476543],[-73.23888,10.476045]]]}},{"type":"Feature","properties":{"id":146},"geometry":{"type":"Polygon","coordinates":[[[-73.242658,10.480619],[-73.24296,10.480457],[-73.243363,10.481248],[-73.243063,10.481411],[-73.242658,10.480619]]]}},{"type":"Feature","properties":{"id":147},"geometry":{"type":"Polygon","coordinates":[[[-73.242983,10.481455],[-73.242677,10.481623],[-73.242435,10.481213],[-73.241986,10.481426],[-73.241822,10.481104],[-73.242192,10.480896],[-73.242578,10.480664],[-73.242983,10.481455]]]}},{"type":"Feature","properties":{"id":148},"geometry":{"type":"Polygon","coordinates":[[[-73.238569,10.477049],[-73.238326,10.477164],[-73.238279,10.477042],[-73.23828,10.477031],[-73.238497,10.476927],[-73.238569,10.477049]]]}},{"type":"Feature","properties":{"id":149},"geometry":{"type":"Polygon","coordinates":[[[-73.244428,10.476928],[-73.243895,10.477262],[-73.24354,10.476779],[-73.244064,10.476347],[-73.244428,10.476928]]]}},{"type":"Feature","properties":{"id":150},"geometry":{"type":"Polygon","coordinates":[[[-73.243404,10.48133],[-73.243731,10.482],[-73.243626,10.482207],[-73.24349,10.482313],[-73.243104,10.481493],[-73.243404,10.48133]]]}},{"type":"Feature","properties":{"id":151},"geometry":{"type":"Polygon","coordinates":[[[-73.243924,10.481053],[-73.244074,10.48129],[-73.24394,10.481543],[-73.24378,10.481894],[-73.243484,10.481286],[-73.243924,10.481053]]]}},{"type":"Feature","properties":{"id":152},"geometry":{"type":"Polygon","coordinates":[[[-73.243149,10.482541],[-73.242951,10.48213],[-73.242722,10.481702],[-73.243023,10.481536],[-73.243415,10.482367],[-73.243149,10.482541]]]}}]}
