{"type":"FeatureCollection","features":[{"type":"Feature","properties":{"nombre":"Parque de las Madres"},"geometry":{"type":"Polygon","coordinates":[[[-73.247669,10.476052],[-73.247503,10.476168],[-73.247338,10.476285],[-73.247188,10.476079],[-73.247441,10.475902],[-73.247519,10.475846],[-73.247669,10.476052]]]}},{"type":"Feature","properties":{"nombre":"Plaza Alfonso López de Valledupar"},"geometry":{"type":"Polygon","coordinates":[[[-73.244968,10.477809],[-73.244942,10.477826],[-73.24494,10.477847],[-73.244491,10.478122],[-73.243907,10.477354],[-73.243883,10.477323],[-73.244027,10.477232],[-73.244465,10.476959],[-73.244615,10.477184],[-73.244756,10.477392],[-73.245004,10.477773],[-73.244968,10.477809]]]}},{"type":"Feature","properties":{"nombre":"Parque de la Alcaldía"},"geometry":{"type":"Polygon","coordinates":[[[-73.243343,10.478026],[-73.243189,10.478134],[-73.243079,10.478206],[-73.243042,10.478232],[-73.242974,10.478036],[-73.242934,10.477946],[-73.243056,10.477874],[-73.243092,10.477849],[-73.243123,10.477823],[-73.243195,10.47777],[-73.243358,10.477993],[-73.243343,10.478026]]]}},{"type":"Feature","properties":{"nombre":"mz 55"},"geometry":{"type":"Polygon","coordinates":[[[-73.248163,10.482059],[-73.247815,10.481575],[-73.248203,10.481274],[-73.248565,10.481765],[-73.248163,10.482059]]]}}]}
