{
  "type": "FeatureCollection",
  "features": [
    {
      "type": "Feature",
      "properties": {
        "nombre": "Área de estudio · Centro Histórico de Valledupar",
        "centro_consulta": "Plaza Alfonso López, Valledupar, Colombia",
        "centro_lat": 10.477751,
        "centro_lon": -73.244632,
        "radio_m": 700,
        "nota": "Generada por scripts/construir_datos.py. Se puede editar a mano (p. ej. en geojson.io)."
      },
      "geometry": {
        "type": "Polygon",
        "coordinates": [
          [
            [
              -73.23823844426022,
              10.477715968367123
            ],
            [
              -73.23824124756493,
              10.477560682008122
            ],
            [
              -73.23824790045386,
              10.47740551050628
            ],
            [
              -73.23825839891389,
              10.477250547329936
            ],
            [
              -73.23827273661558,
              10.477095885821814
            ],
            [
              -73.23829090491694,
              10.47694161914279
            ],
            [
              -73.23831289286868,
              10.476787840215787
            ],
            [
              -73.23833868722079,
              10.4766346416698
            ],
            [
              -73.2383682724306,
              10.476482115784126
            ],
            [
              -73.2384016306721,
              10.476330354432736
            ],
            [
              -73.23843874184666,
              10.476179449028981
            ],
            [
              -73.23847958359525,
              10.476029490470522
            ],
            [
              -73.23852413131179,
              10.475880569084563
            ],
            [
              -73.23857235815812,
              10.475732774573482
            ],
            [
              -73.23862423508005,
              10.47558619596076
            ],
            [
              -73.23867973082498,
              10.475440921537405
            ],
            [
              -73.23873881196064,
              10.47529703880874
            ],
            [
              -73.23880144289532,
              10.475154634441717
            ],
            [
              -73.23886758589924,
              10.475013794212726
            ],
            [
              -73.23893720112736,
              10.474874602955905
            ],
            [
              -73.2390102466433,
              10.474737144512074
            ],
            [
              -73.23908667844472,
              10.474601501678228
            ],
            [
              -73.23916645048973,
              10.474467756157667
            ],
            [
              -73.23924951472469,
              10.474335988510791
            ],
            [
              -73.23933582111313,
              10.474206278106587
            ],
            [
              -73.23942531766589,
              10.4740787030748
            ],
            [
              -73.23951795047249,
              10.473953340258932
            ],
            [
              -73.23961366373355,
              10.473830265169896
            ],
            [
              -73.2397123997944,
              10.473709551940585
            ],
            [
              -73.23981409917988,
              10.473591273281212
            ],
            [
              -73.2399187006301,
              10.473475500435498
            ],
            [
              -73.24002614113734,
              10.47336230313781
            ],
            [
              -73.24013635598405,
              10.473251749571109
            ],
            [
              -73.24024927878179,
              10.473143906325928
            ],
            [
              -73.24036484151125,
              10.473038838360246
            ],
            [
              -73.2404829745632,
              10.472936608960374
            ],
            [
              -73.24060360678038,
              10.472837279702834
            ],
            [
              -73.24072666550047,
              10.472740910417276
            ],
            [
              -73.24085207659975,
              10.472647559150454
            ],
            [
              -73.24097976453773,
              10.472557282131252
            ],
            [
              -73.24110965240274,
              10.472470133736842
            ],
            [
              -73.24124166195821,
              10.472386166459902
            ],
            [
              -73.24137571368976,
              10.472305430877025
            ],
            [
              -73.24151172685316,
              10.472227975618258
            ],
            [
              -73.24164961952282,
              10.472153847337813
            ],
            [
              -73.24178930864132,
              10.472083090685947
            ],
            [
              -73.24193071006925,
              10.472015748282118
            ],
            [
              -73.24207373863605,
              10.471951860689263
            ],
            [
              -73.24221830819116,
              10.471891466389412
            ],
            [
              -73.24236433165598,
              10.471834601760472
            ],
            [
              -73.24251172107627,
              10.471781301054355
            ],
            [
              -73.24266038767517,
              10.471731596376333
            ],
            [
              -73.24281024190665,
              10.471685517665685
            ],
            [
              -73.24296119350937,
              10.471643092677697
            ],
            [
              -73.24311315156116,
              10.471604346966924
            ],
            [
              -73.24326602453361,
              10.471569303871798
            ],
            [
              -73.2434197203474,
              10.471537984500582
            ],
            [
              -73.24357414642753,
              10.471510407718652
            ],
            [
              -73.24372920975925,
              10.471486590137124
            ],
            [
              -73.24388481694398,
              10.471466546102864
            ],
            [
              -73.24404087425556,
              10.471450287689848
            ],
            [
              -73.24419728769672,
              10.471437824691847
            ],
            [
              -73.2443539630557,
              10.4714291646166
            ],
            [
              -73.24451080596293,
              10.471424312681222
            ],
            [
              -73.24466772194793,
              10.47142327180909
            ],
            [
              -73.24482461649612,
              10.471426042628094
            ],
            [
              -73.24498139510581,
              10.47143262347022
            ],
            [
              -73.24513796334509,
              10.471443010372584
            ],
            [
              -73.24529422690867,
              10.471457197079802
            ],
            [
              -73.24545009167474,
              10.47147517504776
            ],
            [
              -73.24560546376155,
              10.471496933448753
            ],
            [
              -73.24576024958402,
              10.471522459178008
            ],
            [
              -73.24591435591013,
              10.471551736861558
            ],
            [
              -73.24606768991694,
              10.471584748865542
            ],
            [
              -73.24622015924668,
              10.47162147530675
            ],
            [
              -73.24637167206215,
              10.471661894064676
            ],
            [
              -73.24652213710222,
              10.471705980794772
            ],
            [
              -73.2466714637367,
              10.471753708943146
            ],
            [
              -73.24681956202092,
              10.471805049762535
            ],
            [
              -73.24696634274989,
              10.47185997232963
            ],
            [
              -73.24711171751211,
              10.471918443563666
            ],
            [
              -73.24725559874271,
              10.471980428246383
            ],
            [
              -73.24739789977626,
              10.4720458890432
            ],
            [
              -73.24753853489892,
              10.47211478652572
            ],
            [
              -73.24767741940012,
              10.472187079195468
            ],
            [
              -73.24781446962346,
              10.472262723508864
            ],
            [
              -73.24794960301728,
              10.472341673903466
            ],
            [
              -73.24808273818421,
              10.472423882825419
            ],
            [
              -73.24821379493028,
              10.472509300758047
            ],
            [
              -73.24834269431325,
              10.472597876251722
            ],
            [
              -73.24846935869006,
              10.47268955595483
            ],
            [
              -73.24859371176368,
              10.47278428464588
            ],
            [
              -73.24871567862901,
              10.472882005266788
            ],
            [
              -73.24883518581808,
              10.472982658957237
            ],
            [
              -73.24895216134419,
              10.473086185090118
            ],
            [
              -73.2490665347454,
              10.473192521308036
            ],
            [
              -73.24917823712683,
              10.473301603560879
            ],
            [
              -73.2492872012023,
              10.47341336614438
            ],
            [
              -73.24939336133481,
              10.473527741739694
            ],
            [
              -73.24949665357599,
              10.473644661453958
            ],
            [
              -73.24959701570478,
              10.473764054861737
            ],
            [
              -73.24969438726482,
              10.473885850047497
            ],
            [
              -73.24978870960086,
              10.474009973648869
            ],
            [
              -73.2498799258942,
              10.474136350900864
            ],
            [
              -73.24996798119676,
              10.474264905680903
            ],
            [
              -73.25005282246433,
              10.474395560554632
            ],
            [
              -73.25013439858846,
              10.474528236822604
            ],
            [
              -73.25021266042724,
              10.474662854567645
            ],
            [
              -73.25028756083499,
              10.474799332703014
            ],
            [
              -73.25035905469058,
              10.474937589021222
            ],
            [
              -73.25042709892462,
              10.475077540243548
            ],
            [
              -73.25049165254553,
              10.475219102070222
            ],
            [
              -73.25055267666409,
              10.47536218923117
            ],
            [
              -73.25061013451696,
              10.47550671553739
            ],
            [
              -73.25066399148882,
              10.475652593932855
            ],
            [
              -73.25071421513326,
              10.475799736546978
            ],
            [
              -73.25076077519228,
              10.4759480547475
            ],
            [
              -73.25080364361455,
              10.476097459193902
            ],
            [
              -73.25084279457235,
              10.476247859891206
            ],
            [
              -73.25087820447712,
              10.476399166244198
            ],
            [
              -73.25090985199368,
              10.47655128711197
            ],
            [
              -73.25093771805307,
              10.476704130862865
            ],
            [
              -73.25096178586412,
              10.476857605429618
            ],
            [
              -73.25098204092347,
              10.477011618364854
            ],
            [
              -73.25099847102446,
              10.477166076896753
            ],
            [
              -73.25101106626438,
              10.47732088798494
            ],
            [
              -73.25101981905048,
              10.477475958376543
            ],
            [
              -73.2510247241046,
              10.477631194662335
            ],
            [
              -73.25102577846629,
              10.47778650333303
            ],
            [
              -73.25102298149467,
              10.477941790835603
            ],
            [
              -73.25101633486884,
              10.478096963629635
            ],
            [
              -73.25100584258679,
              10.478251928243678
            ],
            [
              -73.25099151096313,
              10.478406591331536
            ],
            [
              -73.25097334862517,
              10.478560859728539
            ],
            [
              -73.25095136650783,
              10.478714640507619
            ],
            [
              -73.25092557784708,
              10.478867841035315
            ],
            [
              -73.25089599817188,
              10.479020369027564
            ],
            [
              -73.25086264529492,
              10.479172132605319
            ],
            [
              -73.25082553930187,
              10.47932304034986
            ],
            [
              -73.2507847025393,
              10.479473001357887
            ],
            [
              -73.25074015960128,
              10.4796219252963
            ],
            [
              -73.25069193731444,
              10.479769722456574
            ],
            [
              -73.250640064722,
              10.479916303808837
            ],
            [
              -73.25058457306613,
              10.480061581055487
            ],
            [
              -73.25052549576925,
              10.480205466684398
            ],
            [
              -73.25046286841382,
              10.480347874021628
            ],
            [
              -73.250396728721,
              10.48048871728364
            ],
            [
              -73.25032711652786,
              10.480627911628982
            ],
            [
              -73.25025407376343,
              10.480765373209394
            ],
            [
              -73.25017764442347,
              10.480901019220324
            ],
            [
              -73.25009787454391,
              10.481034767950828
            ],
            [
              -73.25001481217319,
              10.481166538832754
            ],
            [
              -73.24992850734328,
              10.481296252489344
            ],
            [
              -73.24983901203959,
              10.481423830782996
            ],
            [
              -73.24974638016957,
              10.481549196862366
            ],
            [
              -73.24965066753037,
              10.481672275208677
            ],
            [
              -73.24955193177516,
              10.481792991681179
            ],
            [
              -73.24945023237836,
              10.481911273561852
            ],
            [
              -73.24934563059989,
              10.482027049599216
            ],
            [
              -73.24923818944825,
              10.482140250051213
            ],
            [
              -73.24912797364254,
              10.482250806727283
            ],
            [
              -73.24901504957353,
              10.482358653029403
            ],
            [
              -73.24889948526358,
              10.48246372399223
            ],
            [
              -73.24878135032571,
              10.482565956322238
            ],
            [
              -73.24866071592174,
              10.482665288435834
            ],
            [
              -73.24853765471929,
              10.482761660496491
            ],
            [
              -73.24841224084801,
              10.482855014450775
            ],
            [
              -73.2482845498551,
              10.482945294063322
            ],
            [
              -73.24815465865957,
              10.483032444950721
            ],
            [
              -73.24802264550601,
              10.483116414614283
            ],
            [
              -73.24788858991748,
              10.48319715247166
            ],
            [
              -73.24775257264754,
              10.483274609887332
            ],
            [
              -73.24761467563158,
              10.48334874020189
            ],
            [
              -73.2474749819376,
              10.483419498760169
            ],
            [
              -73.24733357571591,
              10.483486842938133
            ],
            [
              -73.24719054214873,
              10.483550732168561
            ],
            [
              -73.24704596739862,
              10.483611127965482
            ],
            [
              -73.24689993855671,
              10.483667993947378
            ],
            [
              -73.24675254359016,
              10.48372129585908
            ],
            [
              -73.24660387128921,
              10.483771001592412
            ],
            [
              -73.24645401121364,
              10.483817081205551
            ],
            [
              -73.24630305363885,
              10.483859506941036
            ],
            [
              -73.24615108950142,
              10.483898253242522
            ],
            [
              -73.2459982103444,
              10.483933296770138
            ],
            [
              -73.24584450826201,
              10.483964616414587
            ],
            [
              -73.24569007584437,
              10.483992193309836
            ],
            [
              -73.24553500612146,
              10.484016010844494
            ],
            [
              -73.24537939250732,
              10.484036054671806
            ],
            [
              -73.24522332874353,
              10.484052312718301
            ],
            [
              -73.24506690884294,
              10.484064775191081
            ],
            [
              -73.24491022703288,
              10.48407343458368
            ],
            [
              -73.24475337769844,
              10.48407828568063
            ],
            [
              -73.24459645532559,
              10.484079325560561
            ],
            [
              -73.24443955444431,
              10.484076553597992
            ],
            [
              -73.24428276957153,
              10.484069971463674
            ],
            [
              -73.24412619515425,
              10.484059583123614
            ],
            [
              -73.24396992551263,
              10.484045394836652
            ],
            [
              -73.24381405478317,
              10.484027415150717
            ],
            [
              -73.24365867686195,
              10.484005654897647
            ],
            [
              -73.24350388534812,
              10.483980127186681
            ],
            [
              -73.2433497734874,
              10.483950847396551
            ],
            [
              -73.24319643411604,
              10.483917833166215
            ],
            [
              -73.2430439596048,
              10.483881104384219
            ],
            [
              -73.24289244180332,
              10.483840683176721
            ],
            [
              -73.24274197198473,
              10.483796593894171
            ],
            [
              -73.24259264079075,
              10.48374886309661
            ],
            [
              -73.24244453817705,
              10.483697519537674
            ],
            [
              -73.24229775335901,
              10.48364259414729
            ],
            [
              -73.242152374758,
              10.483584120013004
            ],
            [
              -73.24200848994815,
              10.483522132360077
            ],
            [
              -73.2418661856035,
              10.483456668530241
            ],
            [
              -73.24172554744588,
              10.483387767959197
            ],
            [
              -73.24158666019318,
              10.483315472152873
            ],
            [
              -73.24144960750836,
              10.48323982466239
            ],
            [
              -73.24131447194911,
              10.483160871057844
            ],
            [
              -73.24118133491794,
              10.483078658900842
            ],
            [
              -73.24105027661332,
              10.48299323771583
            ],
            [
              -73.2409213759813,
              10.48290465896028
            ],
            [
              -73.2407947106679,
              10.48281297599368
            ],
            [
              -73.24067035697242,
              10.482718244045357
            ],
            [
              -73.24054838980145,
              10.482620520181259
            ],
            [
              -73.24042888262369,
              10.482519863269504
            ],
            [
              -73.24031190742583,
              10.482416333944974
            ],
            [
              -73.24019753466904,
              10.482309994572747
            ],
            [
              -73.2400858332466,
              10.482200909210535
            ],
            [
              -73.23997687044239,
              10.482089143570093
            ],
            [
              -73.23987071189039,
              10.48197476497763
            ],
            [
              -73.23976742153512,
              10.48185784233324
            ],
            [
              -73.2396670615931,
              10.481738446069405
            ],
            [
              -73.23956969251545,
              10.481616648108545
            ],
            [
              -73.23947537295138,
              10.481492521819709
            ],
            [
              -73.239384159713,
              10.481366141974364
            ],
            [
              -73.23929610774094,
              10.481237584701342
            ],
            [
              -73.23921127007146,
              10.481106927440992
            ],
            [
              -73.23912969780432,
              10.480974248898523
            ],
            [
              -73.23905144007209,
              10.48083962899657
            ],
            [
              -73.23897654401061,
              10.480703148827091
            ],
            [
              -73.23890505473055,
              10.480564890602464
            ],
            [
              -73.23883701529022,
              10.480424937606005
            ],
            [
              -73.2387724666697,
              10.48028337414176
            ],
            [
              -73.23871144774614,
              10.480140285483744
            ],
            [
              -73.23865399527038,
              10.479995757824572
            ],
            [
              -73.23860014384476,
              10.479849878223515
            ],
            [
              -73.23854992590236,
              10.479702734554085
            ],
            [
              -73.23850337168746,
              10.47955441545107
            ],
            [
              -73.23846050923724,
              10.47940501025717
            ],
            [
              -73.23842136436508,
              10.479254608969155
            ],
            [
              -73.23838596064489,
              10.479103302183676
            ],
            [
              -73.23835431939693,
              10.478951181042664
            ],
            [
              -73.23832645967504,
              10.478798337178455
            ],
            [
              -73.23830239825519,
              10.478644862658571
            ],
            [
              -73.23828214962525,
              10.478490849930282
            ],
            [
              -73.23826572597646,
              10.47833639176491
            ],
            [
              -73.23825313719597,
              10.478181581201937
            ],
            [
              -73.23824439086096,
              10.478026511492983
            ],
            [
              -73.23823949223406,
              10.477871276045622
            ],
            [
              -73.23823844426022,
              10.477715968367123
            ]
          ]
        ]
      }
    }
  ]
}
